EUTELSAT 8 WEST B       
1 40875U 15039B   26011.59097013 -.00000050  00000+0  00000+0 0  9990
2 40875   0.0647  12.6377 0004198 276.1279  27.0922  1.00272154 38088
EUTELSAT 9B             
1 41310U 16005A   26011.52284970  .00000077  00000+0  00000+0 0  9990
2 41310   0.0239  49.6661 0004480 238.9728  19.5977  1.00270257 36542
EUTELSAT 65 WEST A      
1 41382U 16014A   26011.57961673 -.00000260  00000+0  00000+0 0  9991
2 41382   0.0547 331.1071 0002214 326.5234 316.9105  1.00270797 35967
EUTELSAT 117 WEST B     
1 41589U 16038B   26011.67193947  .00000004  00000+0  00000+0 0  9993
2 41589   0.0081 208.6743 0000079  77.1263 310.2874  1.00272829 35093
EUTELSAT 172B           
1 42741U 17029B   26011.55817103  .00000010  00000+0  00000+0 0  9996
2 42741   0.0303 124.1961 0000133 297.6154  62.1714  1.00271902 32166
EUTELSAT 7C             
1 44334U 19034B   26011.52250303  .00000064  00000+0  00000+0 0  9993
2 44334   0.0759 179.8339 0003148  95.9330  30.3388  1.00271633  5267
EUTELSAT 5 WEST B       
1 44624U 19067A   26011.30628278 -.00000027  00000+0  00000+0 0  9997
2 44624   0.0643 342.9468 0003109 310.2488 282.8694  1.00272589 22861
EUTELSAT KONNECT        
1 45027U 20005B   26011.59400348  .00000065  00000+0  00000+0 0  9997
2 45027   0.0697  93.9434 0001198 191.9266  46.2501  1.00271618 22768
